STARLINK-4497           
1 53411U 22097Z   22244.91667824  .00015628  00000+0  11546-3 0  9992
2 53411  53.2190 135.6053 0000930  90.3581 158.7619 15.73219395  4003
STARLINK-4496           
1 53412U 22097AA  22244.91667824  .00011527  00000+0  86298-4 0  9994
2 53412  53.2190 135.5994 0001062  85.6662 166.2911 15.73237444  1305
STARLINK-4500           
1 53413U 22097AB  22244.91667824  .00009498  00000+0  72012-4 0  9998
2 53413  53.2188 135.6007 0000839  76.3403 174.5724 15.73198837  1306
STARLINK-4304           
1 53414U 22097AC  22244.91667824 -.00073167  00000+0 -52005-3 0  9994
2 53414  53.2186 135.5968 0001197  89.4620 163.2475 15.73262602  4004
STARLINK-4479           
1 53415U 22097AD  22244.91667824 -.00027508  00000+0 -19184-3 0  9994
2 53415  53.2191 135.5967 0001049  68.8635 184.3935 15.73246251  4000
STARLINK-4480           
1 53416U 22097AE  22244.91667824  .00010845  00000+0  81531-4 0  9995
2 53416  53.2197 135.5897 0000938  76.7046 178.2835 15.73215332  1306
STARLINK-4484           
1 53417U 22097AF  22244.91667824  .00017373  00000+0  12788-3 0  9996
2 53417  53.2188 135.5948 0001051  76.9557 176.9501 15.73211769  4005
STARLINK-4481           
1 53418U 22097AG  22244.91667824  .00013413  00000+0  99721-4 0  9991
2 53418  53.2188 135.4846 0001141  92.8003 214.2659 15.73226452  4000
STARLINK-4476           
1 53419U 22097AH  22244.91667824  .00016423  00000+0  12114-3 0  9996
2 53419  53.2186 135.5926 0001162  74.1979 180.3271 15.73211834  1308
STARLINK-4552           
1 53420U 22097AJ  22244.91667824  .00012608  00000+0  94060-4 0  9990
2 53420  53.2190 135.5884 0001157  90.4750 166.9751 15.73214044  4009
STARLINK-4545           
1 53421U 22097AK  22244.91667824 -.00094225  00000+0 -67198-3 0  9999
2 53421  53.2187 135.5906 0000926  85.5457 170.0726 15.73287418  1306
STARLINK-4546           
1 53422U 22097AL  22244.91667824  .00013931  00000+0  10341-3 0  9991
2 53422  53.2188 135.5850 0001044  78.3639 180.1776 15.73223057  1306
STARLINK-4539           
1 53423U 22097AM  22244.91667824 -.00076883  00000+0 -54739-3 0  9998
2 53423  53.2191 135.5910 0001047  79.5487 176.7623 15.73243346  4000
STARLINK-4532           
1 53424U 22097AN  22244.91667824  .00018064  00000+0  13259-3 0  9996
2 53424  53.2187 135.5831 0001315  90.5023 169.1970 15.73245442  1305
STARLINK-4531           
1 53425U 22097AP  22244.91667824  .00010520  00000+0  79225-4 0  9992
2 53425  53.2189 135.5861 0000654  84.4118 173.5783 15.73213248  1303
STARLINK-4558           
1 53426U 22097AQ  22244.91667824  .00009378  00000+0  71069-4 0  9990
2 53426  53.2187 135.5819 0000888  79.8610 180.5331 15.73229727  1305
STARLINK-4541           
1 53427U 22097AR  22244.91667824  .00012802  00000+0  95444-4 0  9990
2 53427  53.2195 135.5831 0000971  85.8328 173.4651 15.73210958  4007
STARLINK-4540           
1 53428U 22097AS  22244.91667824  .00017027  00000+0  12537-3 0  9996
2 53428  53.2184 135.5768 0000723  78.4683 183.7498 15.73222193  1309
STARLINK-4543           
1 53429U 22097AT  22244.91667824  .00017334  00000+0  12780-3 0  9998
2 53429  53.2186 135.5779 0001327  95.6157 166.0111 15.73175482  1306
STARLINK-4538           
1 53430U 22097AU  22244.91667824 -.00027966  00000+0 -19509-3 0  9990
2 53430  53.2194 135.5774 0000891  81.4857 181.3072 15.73250635  1307
STARLINK-4548           
1 53431U 22097AV  22244.91667824  .00005867  00000+0  46204-4 0  9998
2 53431  53.2188 135.5802 0001319  76.3782 184.6449 15.73191869  1306
STARLINK-4557           
1 53432U 22097AW  22244.91667824  .00013505  00000+0  10042-3 0  9997
2 53432  53.2192 135.5748 0001252  82.2826 182.3325 15.73216091  4005
STARLINK-4549           
1 53433U 22097AX  22244.91667824  .00011246  00000+0  84393-4 0  9999
2 53433  53.2186 135.5749 0001345  80.5559 182.9026 15.73211699  1300
STARLINK-4498           
1 53434U 22097AY  22244.91667824  .00013834  00000+0  10271-3 0  9998
2 53434  53.2185 135.5707 0000891  79.6823 186.0962 15.73225926  1304
STARLINK-4542           
1 53435U 22097AZ  22244.91667824  .00012471  00000+0  93117-4 0  9996
2 53435  53.2191 135.5753 0001149  88.7432 175.2593 15.73206254  1300
STARLINK-4527           
1 53436U 22097BA  22244.91667824 -.00033092  00000+0 -23199-3 0  9993
2 53436  53.2185 135.5693 0001133  74.9146 191.4541 15.73230791  1305
STARLINK-4526           
1 53438U 22097BC  22244.91667824  .00018313  00000+0  13465-3 0  9997
2 53438  53.2186 135.5685 0001112  88.1007 178.9082 15.73192827  1306
STARLINK-4519           
1 53439U 22097BD  22244.91667824 -.00027895  00000+0 -19472-3 0  9999
2 53439  53.2188 135.5670 0001081  88.5839 179.0417 15.73233639  1306
FALCON 9 DEB            
1 53440U 22097BE  22242.76858748  .10457502  12387-4  23998-3 0  9994
2 53440  53.2132 141.6695 0008107 153.7900 206.3564 16.45850234  3363
FALCON 9 DEB            
1 53441U 22097BF  22242.94921632  .10895506  12420-4  24770-3 0  9995
2 53441  53.2038 140.6467 0006495 151.8170 208.3234 16.46075126  3390
2022-098A               
1 53444U 22098A   22244.88571060  .00002791  00000+0  18107-3 0  9998
2 53444  97.5317 340.8073 0011914 170.8456 321.9818 15.08838167  3424
2022-098B               
1 53445U 22098B   22244.87735905  .00002569  00000+0  16421-3 0  9998
2 53445  97.5346 340.8307 0009792 180.4914 318.9237 15.09475399  3408
2022-098C               
1 53446U 22098C   22244.88521321  .00002750  00000+0  17794-3 0  9991
2 53446  97.5363 340.8252 0012149 174.4415 324.8497 15.08950445  3409
2022-098D               
1 53447U 22098D   22244.88319282  .00002704  00000+0  17437-3 0  9996
2 53447  97.5275 340.7998 0011441 175.8128 324.2823 15.09095110  3405
2022-098E               
1 53448U 22098E   22244.88026012  .00002653  00000+0  17029-3 0  9993
2 53448  97.5343 340.8265 0011897 181.6647 317.4307 15.09277796  3409
2022-098F               
1 53449U 22098F   22244.87896222  .00002620  00000+0  16782-3 0  9990
2 53449  97.5297 340.8105 0011359 182.8217 316.4270 15.09366525  3407
2022-098G               
1 53450U 22098G   22244.87599451  .00002536  00000+0  16180-3 0  9994
2 53450  97.5340 340.8318 0008912 180.6191 318.8939 15.09567120  3404
2022-098H               
1 53451U 22098H   22244.87483248  .00002498  00000+0  15907-3 0  9994
2 53451  97.5389 340.8475 0009404 184.8644 314.7077 15.09644896  3402
2022-098J               
1 53452U 22098J   22244.87345670  .00002490  00000+0  15819-3 0  9995
2 53452  97.5294 340.8193 0009333 187.2256 312.4463 15.09738783  3405
2022-098K               
1 53453U 22098K   22244.87171847  .00002460  00000+0  15597-3 0  9999
2 53453  97.5339 340.8354 0010112 190.3221 306.5858 15.09820297  3403
2022-098L               
1 53454U 22098L   22244.86939634  .00003823  00000+0  23856-3 0  9996
2 53454  97.5289 340.8231 0011706 197.9465 302.0789 15.10045521  3400
2022-098M               
1 53455U 22098M   22244.79890366  .00003800  00000+0  23707-3 0  9997
2 53455  97.5305 340.7612 0011707 198.8448 279.6635 15.10062715  3395
2022-098N               
1 53456U 22098N   22244.86820331  .00003697  00000+0  23049-3 0  9994
2 53456  97.5280 340.8204 0011388 198.7619 299.4484 15.10101902  3406
2022-098P               
1 53457U 22098P   22244.91828852  .00003758  00000+0  23324-3 0  9991
2 53457  97.5284 340.8759 0010647 201.2679 222.5621 15.10268771  3418
2022-098Q               
1 53458U 22098Q   22244.86738767  .00002829  00000+0  17691-3 0  9999
2 53458  97.5325 340.8389 0011117 199.7782 303.5678 15.10195715  3401
2022-098R               
1 53459U 22098R   22244.91753375  .00003702  00000+0  22952-3 0  9995
2 53459  97.5300 340.8846 0010422 202.8721 220.9873 15.10318561  3416
HSU-SAT1                
1 53462U 98067UB  22244.50217320  .00024251  00000+0  40376-3 0  9990
2 53462  51.6411 318.3219 0005873 210.6779 149.3868 15.51869448  3139
FUTABA                  
1 53463U 98067UC  22244.43615988  .00027480  00000+0  45306-3 0  9990
2 53463  51.6409 318.6307 0005778 211.4956 148.5689 15.52071163  3129
TUMNANOSAT              
1 53464U 98067UD  22244.49888231  .00032149  00000+0  52455-3 0  9991
2 53464  51.6409 318.3000 0005718 213.9057 146.1568 15.52277457  3135
STARLINK-4415           
1 53465U 22099A   22244.91667824 -.01211183  00000+0 -16198-1 0  9996
2 53465  97.6556   3.9857 0001969  48.4591 328.9132 15.60815150  1305
STARLINK-4398           
1 53466U 22099B   22244.91667824 -.01204672  00000+0 -18591-1 0  9991
2 53466  97.6558   3.9868 0001947  52.9836 265.8188 15.57029787  1307
STARLINK-4394           
1 53467U 22099C   22244.91667824 -.01204058  00000+0 -18577-1 0  9994
2 53467  97.6558   3.9864 0001757  68.0558 251.4735 15.57036603  1306
STARLINK-4400           
1 53468U 22099D   22244.91667824 -.01204317  00000+0 -18576-1 0  9992
2 53468  97.6558   3.9857 0001810  62.4699 257.7859 15.57043932  1302
STARLINK-4399           
1 53469U 22099E   22244.91667824 -.01204573  00000+0 -18570-1 0  9991
2 53469  97.6558   3.9856 0001857  58.4504 263.2584 15.57058426  1304
STARLINK-4393           
1 53470U 22099F   22244.91667824 -.01204860  00000+0 -18579-1 0  9991
2 53470  97.6558   3.9853 0001974  51.2655 269.7168 15.57051431  1309
STARLINK-4316           
1 53471U 22099G   22244.91667824 -.01204831  00000+0 -18564-1 0  9994
2 53471  97.6557   3.9844 0001908  54.7902 268.3712 15.57072925  1300
STARLINK-4447           
1 53472U 22099H   22244.91667824 -.01204638  00000+0 -18566-1 0  9992
2 53472  97.6558   3.9849 0001870  57.3908 265.0444 15.57065653  1306
STARLINK-4383           
1 53473U 22099J   22244.91667824 -.01204680  00000+0 -18547-1 0  9999
2 53473  97.6557   3.9837 0001834  59.6715 265.6685 15.57094381  1307
STARLINK-4445           
1 53474U 22099K   22244.91667824 -.01204781  00000+0 -18529-1 0  9992
2 53474  97.6557   3.9814 0001803  61.7917 266.4521 15.57123120  1309
